[{"OBJECT_NAME":"SL-8 R/B","OBJECT_ID":"1988-053B","EPOCH":"2026-04-22T06:27:01.802304","MEAN_MOTION":14.38940239,"ECCENTRICITY":0.00207439,"INCLINATION":74.0494,"RA_OF_ASC_NODE":32.1338,"ARG_OF_PERICENTER":204.649,"MEAN_ANOMALY":323.3081,"EPHEMERIS_TYPE":0,"CLASSIFICATION_TYPE":"U","NORAD_CAT_ID":19257,"ELEMENT_SET_NO":999,"REV_AT_EPOCH":98286,"BSTAR":5.5912455e-5,"MEAN_MOTION_DOT":1.46e-6,"MEAN_MOTION_DDOT":0},{"OBJECT_NAME":"COSMOS 1975","OBJECT_ID":"1988-093A","EPOCH":"2026-04-22T07:53:30.377184","MEAN_MOTION":15.28604339,"ECCENTRICITY":0.00121595,"INCLINATION":82.5188,"RA_OF_ASC_NODE":73.8477,"ARG_OF_PERICENTER":26.9192,"MEAN_ANOMALY":333.2675,"EPHEMERIS_TYPE":0,"CLASSIFICATION_TYPE":"U","NORAD_CAT_ID":19573,"ELEMENT_SET_NO":999,"REV_AT_EPOCH":2607,"BSTAR":0.00015364609,"MEAN_MOTION_DOT":4.316e-5,"MEAN_MOTION_DDOT":0},{"OBJECT_NAME":"SL-14 R/B","OBJECT_ID":"1988-093B","EPOCH":"2026-04-22T02:54:30.936960","MEAN_MOTION":14.85700844,"ECCENTRICITY":0.00191381,"INCLINATION":82.5336,"RA_OF_ASC_NODE":1.2842,"ARG_OF_PERICENTER":253.3769,"MEAN_ANOMALY":262.0977,"EPHEMERIS_TYPE":0,"CLASSIFICATION_TYPE":"U","NORAD_CAT_ID":19574,"ELEMENT_SET_NO":999,"REV_AT_EPOCH":746,"BSTAR":3.0374206e-5,"MEAN_MOTION_DOT":2.88e-6,"MEAN_MOTION_DDOT":0},{"OBJECT_NAME":"SL-16 R/B","OBJECT_ID":"1988-102B","EPOCH":"2026-04-22T13:22:20.352000","MEAN_MOTION":14.16157907,"ECCENTRICITY":0.0016242,"INCLINATION":70.9998,"RA_OF_ASC_NODE":59.191,"ARG_OF_PERICENTER":299.1811,"MEAN_ANOMALY":60.7687,"EPHEMERIS_TYPE":0,"CLASSIFICATION_TYPE":"U","NORAD_CAT_ID":19650,"ELEMENT_SET_NO":999,"REV_AT_EPOCH":93310,"BSTAR":-8.5528e-5,"MEAN_MOTION_DOT":-2.17e-6,"MEAN_MOTION_DDOT":0},{"OBJECT_NAME":"INTERCOSMOS 24","OBJECT_ID":"1989-080A","EPOCH":"2026-04-22T07:59:55.399776","MEAN_MOTION":12.59599519,"ECCENTRICITY":0.11874432,"INCLINATION":82.6033,"RA_OF_ASC_NODE":75.9789,"ARG_OF_PERICENTER":191.463,"MEAN_ANOMALY":165.708,"EPHEMERIS_TYPE":0,"CLASSIFICATION_TYPE":"U","NORAD_CAT_ID":20261,"ELEMENT_SET_NO":999,"REV_AT_EPOCH":67229,"BSTAR":3.5474368e-5,"MEAN_MOTION_DOT":1.37e-6,"MEAN_MOTION_DDOT":0},{"OBJECT_NAME":"SL-14 R/B","OBJECT_ID":"1989-080C","EPOCH":"2026-04-22T19:17:02.324832","MEAN_MOTION":12.50527329,"ECCENTRICITY":0.1230995,"INCLINATION":82.5914,"RA_OF_ASC_NODE":144.8772,"ARG_OF_PERICENTER":83.9718,"MEAN_ANOMALY":289.9939,"EPHEMERIS_TYPE":0,"CLASSIFICATION_TYPE":"U","NORAD_CAT_ID":20262,"ELEMENT_SET_NO":999,"REV_AT_EPOCH":66566,"BSTAR":6.2248e-5,"MEAN_MOTION_DOT":2.39e-6,"MEAN_MOTION_DDOT":0},{"OBJECT_NAME":"DELTA 1 R/B","OBJECT_ID":"1989-089B","EPOCH":"2026-04-22T20:00:19.793088","MEAN_MOTION":14.50695235,"ECCENTRICITY":0.0068583,"INCLINATION":97.0667,"RA_OF_ASC_NODE":313.2389,"ARG_OF_PERICENTER":344.328,"MEAN_ANOMALY":15.5794,"EPHEMERIS_TYPE":0,"CLASSIFICATION_TYPE":"U","NORAD_CAT_ID":20323,"ELEMENT_SET_NO":999,"REV_AT_EPOCH":90213,"BSTAR":4.7085e-5,"MEAN_MOTION_DOT":1.55e-6,"MEAN_MOTION_DDOT":0},{"OBJECT_NAME":"ARIANE 40 R/B","OBJECT_ID":"1990-005H","EPOCH":"2026-04-22T17:33:17.673120","MEAN_MOTION":14.39897156,"ECCENTRICITY":0.001132,"INCLINATION":98.3003,"RA_OF_ASC_NODE":172.0612,"ARG_OF_PERICENTER":75.3923,"MEAN_ANOMALY":284.852,"EPHEMERIS_TYPE":0,"CLASSIFICATION_TYPE":"U","NORAD_CAT_ID":20443,"ELEMENT_SET_NO":999,"REV_AT_EPOCH":89914,"BSTAR":5.6811e-5,"MEAN_MOTION_DOT":1.36e-6,"MEAN_MOTION_DDOT":0},{"OBJECT_NAME":"DELTA 2 R/B(1)","OBJECT_ID":"1990-008B","EPOCH":"2026-04-22T10:26:16.265472","MEAN_MOTION":15.61580255,"ECCENTRICITY":0.00752337,"INCLINATION":35.6019,"RA_OF_ASC_NODE":246.4914,"ARG_OF_PERICENTER":309.3682,"MEAN_ANOMALY":50.0409,"EPHEMERIS_TYPE":0,"CLASSIFICATION_TYPE":"U","NORAD_CAT_ID":20453,"ELEMENT_SET_NO":999,"REV_AT_EPOCH":93296,"BSTAR":0.00044498604,"MEAN_MOTION_DOT":0.00045805,"MEAN_MOTION_DDOT":0},{"OBJECT_NAME":"COSMOS 2058","OBJECT_ID":"1990-010A","EPOCH":"2026-04-22T17:41:59.580960","MEAN_MOTION":15.11681887,"ECCENTRICITY":0.0009411,"INCLINATION":82.4698,"RA_OF_ASC_NODE":4.0306,"ARG_OF_PERICENTER":171.7863,"MEAN_ANOMALY":188.3523,"EPHEMERIS_TYPE":0,"CLASSIFICATION_TYPE":"U","NORAD_CAT_ID":20465,"ELEMENT_SET_NO":999,"REV_AT_EPOCH":94889,"BSTAR":0.00010779,"MEAN_MOTION_DOT":1.865e-5,"MEAN_MOTION_DDOT":0},{"OBJECT_NAME":"SL-14 R/B","OBJECT_ID":"1990-010B","EPOCH":"2026-04-22T17:29:43.664640","MEAN_MOTION":14.83609295,"ECCENTRICITY":0.0020575,"INCLINATION":82.5038,"RA_OF_ASC_NODE":226.0184,"ARG_OF_PERICENTER":151.1043,"MEAN_ANOMALY":209.1317,"EPHEMERIS_TYPE":0,"CLASSIFICATION_TYPE":"U","NORAD_CAT_ID":20466,"ELEMENT_SET_NO":999,"REV_AT_EPOCH":93501,"BSTAR":3.5955e-5,"MEAN_MOTION_DOT":3.22e-6,"MEAN_MOTION_DDOT":0},{"OBJECT_NAME":"SL-14 R/B","OBJECT_ID":"1990-018B","EPOCH":"2026-04-22T14:04:30.347040","MEAN_MOTION":14.82182607,"ECCENTRICITY":0.0014995,"INCLINATION":82.5237,"RA_OF_ASC_NODE":182.0741,"ARG_OF_PERICENTER":310.8099,"MEAN_ANOMALY":49.1814,"EPHEMERIS_TYPE":0,"CLASSIFICATION_TYPE":"U","NORAD_CAT_ID":20511,"ELEMENT_SET_NO":999,"REV_AT_EPOCH":92908,"BSTAR":2.6313e-5,"MEAN_MOTION_DOT":2.33e-6,"MEAN_MOTION_DDOT":0},{"OBJECT_NAME":"HST","OBJECT_ID":"1990-037B","EPOCH":"2026-04-22T15:36:23.372064","MEAN_MOTION":15.30109993,"ECCENTRICITY":0.0001748,"INCLINATION":28.4739,"RA_OF_ASC_NODE":99.9568,"ARG_OF_PERICENTER":243.521,"MEAN_ANOMALY":116.5207,"EPHEMERIS_TYPE":0,"CLASSIFICATION_TYPE":"U","NORAD_CAT_ID":20580,"ELEMENT_SET_NO":999,"REV_AT_EPOCH":78005,"BSTAR":0.00014271,"MEAN_MOTION_DOT":4.508e-5,"MEAN_MOTION_DDOT":0},{"OBJECT_NAME":"SL-16 R/B","OBJECT_ID":"1990-046B","EPOCH":"2026-04-22T17:42:53.537760","MEAN_MOTION":14.15014861,"ECCENTRICITY":0.001619,"INCLINATION":70.9993,"RA_OF_ASC_NODE":205.4006,"ARG_OF_PERICENTER":241.4104,"MEAN_ANOMALY":118.539,"EPHEMERIS_TYPE":0,"CLASSIFICATION_TYPE":"U","NORAD_CAT_ID":20625,"ELEMENT_SET_NO":999,"REV_AT_EPOCH":85462,"BSTAR":-4.389e-6,"MEAN_MOTION_DOT":-5.6e-7,"MEAN_MOTION_DDOT":0},{"OBJECT_NAME":"COSMOS 2084","OBJECT_ID":"1990-055A","EPOCH":"2026-04-22T11:38:55.306176","MEAN_MOTION":15.05888584,"ECCENTRICITY":0.00101631,"INCLINATION":62.789,"RA_OF_ASC_NODE":186.1745,"ARG_OF_PERICENTER":208.1203,"MEAN_ANOMALY":151.935,"EPHEMERIS_TYPE":0,"CLASSIFICATION_TYPE":"U","NORAD_CAT_ID":20663,"ELEMENT_SET_NO":999,"REV_AT_EPOCH":94291,"BSTAR":0.00010442951,"MEAN_MOTION_DOT":1.323e-5,"MEAN_MOTION_DDOT":0},{"OBJECT_NAME":"SL-6 R/B(2)","OBJECT_ID":"1990-055D","EPOCH":"2026-04-22T06:18:10.706688","MEAN_MOTION":15.03780467,"ECCENTRICITY":0.00318572,"INCLINATION":62.7805,"RA_OF_ASC_NODE":105.6492,"ARG_OF_PERICENTER":356.2297,"MEAN_ANOMALY":3.8557,"EPHEMERIS_TYPE":0,"CLASSIFICATION_TYPE":"U","NORAD_CAT_ID":20666,"ELEMENT_SET_NO":999,"REV_AT_EPOCH":94474,"BSTAR":0.00012229329,"MEAN_MOTION_DOT":1.501e-5,"MEAN_MOTION_DDOT":0},{"OBJECT_NAME":"SL-8 R/B","OBJECT_ID":"1990-078B","EPOCH":"2026-04-22T13:42:35.589600","MEAN_MOTION":14.90254258,"ECCENTRICITY":0.0356444,"INCLINATION":82.9053,"RA_OF_ASC_NODE":211.8096,"ARG_OF_PERICENTER":225.7435,"MEAN_ANOMALY":131.4027,"EPHEMERIS_TYPE":0,"CLASSIFICATION_TYPE":"U","NORAD_CAT_ID":20775,"ELEMENT_SET_NO":999,"REV_AT_EPOCH":81583,"BSTAR":0.00042143,"MEAN_MOTION_DOT":0.00014359,"MEAN_MOTION_DDOT":0}]
