SL-8 R/B                
1 19257U 88053B   26112.26877086  .00000146  00000+0  55912-4 0  9990
2 19257  74.0494  32.1338 0020743 204.6490 323.3081 14.38940239982861
COSMOS 1975             
1 19573U 88093A   26112.32882381  .00004316  00000+0  15365-3 0  9996
2 19573  82.5188  73.8477 0012159  26.9192 333.2675 15.28604339 26077
SL-14 R/B               
1 19574U 88093B   26112.12119140  .00000288  00000+0  30374-4 0  9993
2 19574  82.5336   1.2842 0019138 253.3769 262.0977 14.85700844  7460
SL-16 R/B               
1 19650U 88102B   26112.55718000 -.00000217  00000+0 -85528-4 0  9991
2 19650  70.9998  59.1910 0016242 299.1811  60.7687 14.16157907933107
INTERCOSMOS 24          
1 20261U 89080A   26112.33328009  .00000137  00000+0  35474-4 0  9993
2 20261  82.6033  75.9789 1187443 191.4630 165.7080 12.59599519672290
SL-14 R/B               
1 20262U 89080C   26112.80349913  .00000239  00000+0  62248-4 0  9995
2 20262  82.5914 144.8772 1230995  83.9718 289.9939 12.50527329665665
DELTA 1 R/B             
1 20323U 89089B   26112.83356242  .00000155  00000+0  47085-4 0  9997
2 20323  97.0667 313.2389 0068583 344.3280  15.5794 14.50695235902136
ARIANE 40 R/B           
1 20443U 90005H   26112.73145455  .00000136  00000+0  56811-4 0  9997
2 20443  98.3003 172.0612 0011320  75.3923 284.8520 14.39897156899146
DELTA 2 R/B(1)          
1 20453U 90008B   26112.43491048  .00045805  00000+0  44499-3 0  9990
2 20453  35.6019 246.4914 0075233 309.3682  50.0409 15.61580255932966
COSMOS 2058             
1 20465U 90010A   26112.73749515  .00001865  00000+0  10779-3 0  9996
2 20465  82.4698   4.0306 0009411 171.7863 188.3523 15.11681887948891
SL-14 R/B               
1 20466U 90010B   26112.72897760  .00000322  00000+0  35955-4 0  9993
2 20466  82.5038 226.0184 0020575 151.1043 209.1317 14.83609295935011
SL-14 R/B               
1 20511U 90018B   26112.58646235  .00000233  00000+0  26313-4 0  9994
2 20511  82.5237 182.0741 0014995 310.8099  49.1814 14.82182607929083
HST                     
1 20580U 90037B   26112.65027051  .00004508  00000+0  14271-3 0  9996
2 20580  28.4739  99.9568 0001748 243.5210 116.5207 15.30109993780055
SL-16 R/B               
1 20625U 90046B   26112.73811965 -.00000056  00000+0 -43890-5 0  9997
2 20625  70.9993 205.4006 0016190 241.4104 118.5390 14.15014861854627
COSMOS 2084             
1 20663U 90055A   26112.48536234  .00001323  00000+0  10443-3 0  9996
2 20663  62.7890 186.1745 0010163 208.1203 151.9350 15.05888584942911
SL-6 R/B(2)             
1 20666U 90055D   26112.26262392  .00001501  00000+0  12229-3 0  9998
2 20666  62.7805 105.6492 0031857 356.2297   3.8557 15.03780467944742
SL-8 R/B                
1 20775U 90078B   26112.57124525  .00014359  00000+0  42143-3 0  9996
2 20775  82.9053 211.8096 0356444 225.7435 131.4027 14.90254258815834
